C/2014 A4 (SONEAR),e,121.3726,29.6964,356.6076,3509,0.0000047,0.99881054,0.0000,09/04.3861/2015,2000,g  6.0,4.0
# From MPC 96865
C/2014 AA52 (Catalina),h,02/27.0820/2015,105.1316,330.3483,292.1459,1.000109,2.000222,2000,10.0,4.0
# From MPC115880
C/2014 B1 (Schwartz),h,09/10.3690/2017,28.3954,161.4010,345.8458,1.000473,9.556572,2000,4.0,4.0
# From MPC102095
P/2014 C1 (TOTAS),e,2.6809,167.8242,24.1705,3.044385,0.1855473,0.44677778,42.9903,12/01.0/2019,2000,g 15.5,4.0
# From MPC 91614
P/2014 E1 (Larson),e,15.9773,39.0467,185.9850,3.713070,0.1377541,0.42369568,277.7499,12/01.0/2019,2000,g 14.0,4.0
# From MPC 97495
C/2014 F2 (Tenagra),e,119.1113,267.4484,86.1510,153.1223,0.0005202,0.97181996,0.0000,01/03.9901/2015,2000,g  9.5,4.0
# From MPC 94280
C/2014 F3 (Sheppard-Trujillo),e,6.5099,327.1028,1.8186,16.28724,0.0149945,0.64947385,352.2027,12/01.0/2019,2000,g  6.0,4.0
# From MPC101095
C/2014 G3 (PANSTARRS),e,156.0832,4.7758,148.2282,54.04443,0.0024807,0.91285822,4.3701,12/01.0/2019,2000,g  9.0,4.0
# From MPC105541
C/2014 HU195 (Valdes-TOTAS),e,5.8174,115.7431,145.3470,22.11287,0.0094784,0.76791205,15.6968,12/01.0/2019,2000,g 10.5,4.0
# From MPC 98560
P/2014 L2 (NEOWISE),e,5.1936,149.3579,182.6227,6.304287,0.0622659,0.64764970,122.2200,12/01.0/2019,2000,g 12.0,4.0
# From MPC 90769
P/2014 L3 (Hill),e,6.2765,115.4744,178.5935,8.161989,0.0422678,0.77393307,83.6604,12/01.0/2019,2000,g 16.0,4.0
# From MPC 95731
C/2014 L5 (Lemmon),e,122.8283,35.7025,45.5002,4032,0.0000039,0.99846144,0.0000,11/23.1937/2014,2000,g  8.0,4.0
# From MPC103844
C/2014 M1 (PANSTARRS),e,160.2180,234.7685,337.1032,6940,0.0000017,0.99919381,0.0000,08/27.4152/2015,2000,g  9.0,4.0
# From MPC 91614
P/2014 M4 (PANSTARRS),e,3.3344,263.2878,147.9888,5.878311,0.0691553,0.59337560,124.6437,12/01.0/2019,2000,g 15.0,4.0
# From MPC103844
P/2014 MG4 (Spacewatch-PANSTARRS),e,9.3698,311.7412,299.0349,5.011599,0.0878496,0.26008888,207.1147,12/01.0/2019,2000,g  9.5,4.0
# From MPC103844
C/2014 N3 (NEOWISE),e,61.6558,19.8619,353.4005,1585,0.0000156,0.99755712,0.0000,03/12.6035/2015,2000,g  7.0,4.0
# From MPC 98560
P/2014 O3 (PANSTARRS),e,7.8093,87.6389,204.4654,7.557037,0.0474435,0.38642438,97.3153,12/01.0/2019,2000,g 10.5,4.0
# From MPC117068
C/2014 OE4 (PANSTARRS),h,12/12.2610/2016,81.3409,240.3959,65.8474,1.002299,6.247167,2000,11.0,2.0
# From MPC100578
C/2014 Q1 (PANSTARRS),e,43.0703,9.0157,119.9778,1007,0.0000309,0.99968371,0.0000,07/05.4025/2015,2000,g  8.0,4.0
# From MPC115880
C/2014 Q2 (Lovejoy),e,80.1898,95.0454,12.3550,422.4116,0.0001135,0.99694174,0.0000,01/28.4237/2015,2000,g  2.7,10.0
# From MPC102952
C/2014 Q3 (Borisov),e,89.8857,63.1411,47.3174,27.79648,0.0067254,0.94065164,12.3777,12/01.0/2019,2000,g -0.5,20.0
# From MPC 95732
C/2014 Q6 (PANSTARRS),e,49.8136,326.5325,2.5329,6419,0.0000019,0.99934286,0.0000,01/06.6347/2015,2000,g  9.5,4.0
# From MPC 95211
C/2014 R1 (Borisov),e,9.9069,104.0173,55.8029,175.0501,0.0004256,0.99226641,0.0000,11/17.4886/2014,2000,g  6.5,8.8
# From MPC115880
C/2014 R3 (PANSTARRS),e,90.8928,334.0918,113.4641,6860,0.0000017,0.99893926,0.0000,08/08.6902/2016,2000,g  6.5,4.0
# From MPC 91615
P/2014 R5 (Lemmon-PANSTARRS),e,1.0882,126.5477,213.6962,4.057644,0.1205850,0.41313714,240.3357,12/01.0/2019,2000,g 15.0,4.0
# From MPC104790
C/2014 S2 (PANSTARRS),e,64.4570,8.0943,87.3718,172.1138,0.0004365,0.98789639,0.0000,12/09.0683/2015,2000,g 10.0,4.0
# From MPC 91616
P/2014 U4 (PANSTARRS),e,6.4314,11.9847,347.7808,3.505517,0.1501675,0.46559599,293.8338,12/01.0/2019,2000,g 18.0,4.0
# From MPC 95211
P/2014 V1 (PANSTARRS),e,22.4995,166.2121,177.5472,5.483067,0.0767660,0.53357486,136.2238,12/01.0/2019,2000,g 14.0,4.0
# From MPC 93586
P/2014 W1 (PANSTARRS),e,8.8406,246.2441,152.3612,4.459365,0.1046633,0.38875425,204.9546,12/01.0/2019,2000,g 15.5,4.0
# From MPC110493
C/2014 W2 (PANSTARRS),e,82.0291,69.9628,84.9396,620.3944,0.0000638,0.99569350,0.0000,03/08.8042/2016,2000,g  7.5,4.0
# From MPC105542
P/2014 W4 (PANSTARRS),e,15.2674,33.3482,67.9840,6.604225,0.0580726,0.35227725,83.0621,12/01.0/2019,2000,g 11.0,4.0
# From MPC 95211
C/2014 W6 (Catalina),h,03/18.3860/2015,53.4970,338.1951,209.9516,1.001357,3.096769,2000,10.5,4.0
# From MPC 92982
C/2014 W7 (Christensen),e,98.1341,151.2679,33.2569,11.39539,0.0256218,0.86940749,46.0064,12/01.0/2019,2000,g 16.0,4.0
# From MPC 91616
C/2014 W8 (PANSTARRS),e,41.9562,224.8357,228.0046,171.2633,0.0004398,0.97068216,0.0000,09/09.0183/2015,2000,g 11.0,4.0
# From MPC 94672
C/2014 W9 (PANSTARRS),e,10.6175,21.3462,167.8989,11.20982,0.0262607,0.85743026,45.9671,12/01.0/2019,2000,g 16.0,4.0
# From MPC115880
C/2014 W10 (PANSTARRS),e,82.8634,43.1376,43.6775,876.4702,0.0000380,0.99135677,0.0000,03/04.9814/2016,2000,g  8.0,4.0
# From MPC107047
C/2014 W11 (PANSTARRS),e,12.9982,295.7027,225.8295,9.778967,0.0322303,0.65173912,52.2173,12/01.0/2019,2000,g 10.0,4.0
# From MPC 93587
P/2014 W12 (Gibbs),e,8.5141,299.2888,36.9220,3.517312,0.1494128,0.52388437,275.3666,12/01.0/2019,2000,g 15.0,4.0
# From MPC 94281
P/2014 X1 (Elenin),e,26.0005,61.5027,34.0365,6.213022,0.0636429,0.70864969,114.1165,12/01.0/2019,2000,g 15.0,4.0
# From MPC 96866
C/2014 XB8 (PANSTARRS),e,149.7892,37.4923,351.3061,641.9856,0.0000606,0.99532049,0.0000,04/04.2231/2015,2000,g 13.5,4.0
# From MPC100579
C/2014 Y1 (PANSTARRS),h,01/16.9844/2016,14.9194,19.5168,182.3451,1.001724,2.249987,2000,9.5,4.0
# From MPC 96279
C/2015 A1 (PANSTARRS),e,80.2193,341.0378,244.9300,20.24462,0.0108203,0.90137151,18.6534,12/01.0/2019,2000,g 14.5,4.0
# From MPC 93587
C/2015 A2 (PANSTARRS),p,08/01.8353/2015,109.1696,208.8369,5.341055,258.5042,2000,10.5,4.0
# From MPC 92275
P/2015 A3 (PANSTARRS),e,172.5278,277.1581,249.2047,7.808054,0.0451741,0.85188558,78.8534,12/01.0/2019,2000,g 20.0,4.0
# From MPC 99270
P/2015 B1 (PANSTARRS),e,18.0217,353.0992,188.7048,9.505741,0.0336299,0.37000622,51.6313,12/01.0/2019,2000,g  8.5,4.0
# From MPC108592
C/2015 B2 (PANSTARRS),h,05/06.2243/2016,105.0228,341.8771,284.7212,1.000322,3.368197,2000,9.5,4.0
# From MPC109141
P/2015 B4 (Lemmon-PANSTARRS),e,1.7605,266.0264,227.5311,8.541261,0.0394840,0.56124772,69.3923,12/01.0/2019,2000,g 11.0,4.0
# From MPC101096
P/2015 C1 (TOTAS-Gibbs),e,13.8833,348.8376,178.4118,6.590730,0.0582511,0.56040313,97.6558,12/01.0/2019,2000,g 12.5,4.0
# From MPC 95211
C/2015 C2 (SWAN),e,94.5233,49.5223,333.9663,348.1447,0.0001517,0.99797224,0.0000,03/03.9843/2015,2000,g 14.0,4.0
# From MPC115880
C/2015 D3 (PANSTARRS),h,05/03.1984/2016,128.5410,157.0306,3.0022,1.003843,8.149992,2000,5.5,4.0
# From MPC109141
P/2015 D5 (Kowalski),e,20.4931,74.0610,40.0112,8.981911,0.0366143,0.48916444,75.7199,12/01.0/2019,2000,g  9.0,4.0
# From MPC 96866
P/2015 D6 (Lemmon-PANSTARRS),e,20.2123,46.1472,125.3016,7.155552,0.0514920,0.36273828,82.7535,12/01.0/2019,2000,g 10.5,4.0
# From MPC112390
C/2015 ER61 (PANSTARRS),e,6.3472,235.2090,68.2120,450.4160,0.0001031,0.99768753,0.0000,05/10.2318/2017,2000,g 11.0,2.0
# From MPEC 2018-BF5
C/2015 E61-B (PANSTARRS),e,6.3488,235.2441,68.3012,1094,0.0000272,0.99904651,0.0000,05/10.2094/2017,2000,g 13.5,2.0
# From MPC109142
P/2015 F1 (PANSTARRS),e,2.8026,40.4102,187.3953,3.524068,0.1489833,0.27831571,256.2713,12/01.0/2019,2000,g 12.5,4.0
# From MPC 98561
C/2015 F2 (Polonia),e,28.7306,262.4445,352.2186,39.12041,0.0040281,0.96897370,6.7535,12/01.0/2019,2000,g 16.5,4.0
# From MPC 96279
C/2015 F3 (SWAN),e,73.5246,31.7024,57.4544,180.4262,0.0004067,0.99537431,0.0000,03/07.5634/2015,2000,g 14.5,4.0
# From MPC115880
C/2015 F4 (Jacques),e,48.8040,285.9194,36.3152,116.7090,0.0007817,0.98594893,0.0000,08/11.6928/2015,2000,g 11.0,4.0
# From MPC 95212
C/2015 F5 (SWAN-Xingming),e,149.3748,287.7500,13.4744,15.56599,0.0160487,0.97757579,0.0000,03/28.2418/2015,2000,g 15.5,4.0
# From MPC102096
C/2015 GX (PANSTARRS),e,90.2671,235.5041,108.8259,16.16744,0.0151615,0.87858814,23.5993,12/01.0/2019,2000,g 14.0,4.0
# From MPC109142
C/2015 G2 (MASTER),h,05/24.5970/2015,147.6602,110.2422,257.6541,1.000601,0.780034,2000,11.0,4.0
# From MPC 98561
C/2015 H1 (Bressi),e,140.6638,325.8545,21.9275,32.02164,0.0054392,0.93949810,9.3004,12/01.0/2019,2000,g 13.5,4.0
# From MPC117068
C/2015 H2 (PANSTARRS),h,09/14.1488/2016,33.6744,350.6932,288.0133,1.005414,4.971977,2000,7.5,4.0
# From MPC100280
P/2015 HG16 (PANSTARRS),e,18.8638,59.2492,47.2364,4.755229,0.0950488,0.34824283,188.7118,12/01.0/2019,2000,g 12.5,4.0
# From MPC101096
C/2015 J2 (PANSTARRS),e,17.2758,56.7461,203.8807,292.4281,0.0001971,0.98519288,0.0000,09/09.9995/2015,2000,g 10.0,4.0
# From MPC 95733
P/2015 J3 (NEOWISE),e,8.1306,111.3517,129.4261,3.349711,0.1607656,0.55453942,278.3204,12/01.0/2019,2000,g 16.5,4.0
# From MPC 95733
C/2015 K2 (PANSTARRS),e,29.0920,223.7116,15.9307,304.3804,0.0001856,0.99519731,0.0000,06/09.0112/2015,2000,g 20.0,4.0
# From MPC 95733
C/2015 K4 (PANSTARRS),h,05/01.8489/2015,80.2695,250.7235,357.7172,1.000863,2.016604,2000,15.0,4.0
# From MPC 95213
P/2015 K5 (PANSTARRS),e,39.9482,134.1973,106.2563,6.716155,0.0566269,0.55426231,92.7711,12/01.0/2019,2000,g 13.5,4.0
# From MPC111767
C/2015 LC2 (PANSTARRS),h,05/02.2594/2015,93.7196,223.5919,342.0188,1.000375,5.904727,2000,8.0,4.0
# From MPC 95734
C/2015 M1 (PANSTARRS),e,57.3305,100.1737,164.1617,444.5235,0.0001052,0.99528136,0.0000,05/15.9186/2015,2000,g 16.5,4.0
# From MPC107684
P/2015 M2 (PANSTARRS),e,3.9737,86.5778,225.1201,7.221146,0.0507919,0.18100944,78.6208,12/01.0/2019,2000,g  8.5,4.0
# From MPC115881
C/2015 M3 (PANSTARRS),e,65.8824,143.0218,123.8573,138.4612,0.0006049,0.97431342,0.0000,08/26.3342/2015,2000,g 12.0,4.0
# From MPC112390
C/2015 O1 (PANSTARRS),h,02/19.2784/2018,127.2213,299.8520,89.6267,1.000495,3.730329,2000,6.5,4.0
# From MPC 96280
C/2015 P3 (SWAN),e,58.2024,87.9823,133.0957,265.1923,0.0002282,0.99728143,0.0000,07/27.5440/2015,2000,g 15.5,4.0
# From MPC 99819
P/2015 P4 (PANSTARRS),e,8.7178,104.7661,280.6145,6.053116,0.0661813,0.58390321,93.4613,12/01.0/2019,2000,g 14.0,4.0
# From MPC102952
